TRANSIT 16 [?]          
1 02807U 67048A   23109.36119323  .00000206  00000+0  30475-3 0  9994
2 02807  89.6694  25.9843 0021873  40.2448  80.3561 13.50385588752053
TRANSIT 17 [?]          
1 02965U 67092A   23109.45210927  .00000214  00000+0  30109-3 0  9993
2 02965  89.2244  99.6685 0048200 165.0050 351.1124 13.53096707740017
TRANSIT 18 [?]          
1 03133U 68012A   23109.46119170  .00000212  00000+0  30568-3 0  9990
2 03133  90.0078 271.7952 0076731  95.1494 319.1461 13.51225532438419
NNSS 19 [?]             
1 04507U 70067A   23109.39938426  .00000284  00000+0  38984-3 0  9993
2 04507  89.9418 237.1969 0171536 217.6280 141.2771 13.50909530591466
NNSS O-20 [?]           
1 06909U 73081A   23109.41797346  .00000439  00000+0  43890-3 0  9991
2 06909  89.8192 271.6600 0158175 100.4936 261.4092 13.70806259670924
TRANSAT [?]             
1 10457U 77106A   23109.43433587  .00000140  00000+0  20768-3 0  9990
2 10457  89.6626 112.5092 0027106 104.2928  68.7075 13.48725327236903
NOVA I [?]              
1 12458U 81044A   23109.45291955  .00000130  00000+0  28748-3 0  9997
2 12458  89.8729 104.2117 0012604 251.5027 261.5834 13.23100640 23819
NOVA 3 [?]              
1 15362U 84110A   23109.45396597  .00000089  00000+0  19018-3 0  9992
2 15362  90.1061  69.9252 0033655 117.0399 359.5926 13.22870886858961
OSCAR 30 [?]            
1 15935U 85066A   23109.40474911  .00000130  00000+0  22403-3 0  9990
2 15935  90.1778  83.2409 0166758 295.8448 182.2373 13.35812937835246
OSCAR 24 [?]            
1 15936U 85066B   23109.43787375  .00000158  00000+0  27355-3 0  9996
2 15936  90.1781  75.1298 0167501 301.7357 179.1534 13.35671759837162
POLAR BEAR [?]          
1 17070U 86088A   23109.37892167  .00000191  00000+0  18749-3 0  9995
2 17070  89.5841 223.8386 0040165 158.5558 264.6624 13.74934729826710
OSCAR 27 [?]            
1 18361U 87080A   23109.36737599  .00000170  00000+0  26534-3 0  9996
2 18361  90.3468  44.4945 0105987 117.0702 244.1308 13.44622098745422
OSCAR 29 [?]            
1 18362U 87080B   23109.37043654  .00000145  00000+0  22677-3 0  9996
2 18362  90.3483  44.8538 0107126 137.7316 337.5965 13.44201527744996
OSCAR 23 [?]            
1 19070U 88033A   23109.18989014  .00000123  00000+0  23292-3 0  9990
2 19070  90.3249 346.4932 0189818 354.3028 114.5630 13.27568397694018
OSCAR 32 [?]            
1 19071U 88033B   23109.21793615  .00000135  00000+0  25776-3 0  9997
2 19071  90.3250 346.5864 0187773 341.9022 131.4773 13.27745885694127
NOVA 11 [?]             
1 19223U 88052A   23109.46019941  .00000059  00000+0  11980-3 0  9994
2 19223  89.9756  80.1082 0031240 158.6695 322.9363 13.22780683681465
OSCAR 25 [?]            
1 19419U 88074A   23109.35603260  .00000162  00000+0  26221-3 0  9995
2 19419  90.0158  18.1241 0097660 127.7994 357.9310 13.42352246696475
OSCAR 31 [?]            
1 19420U 88074B   23109.29155542  .00000153  00000+0  24653-3 0  9992
2 19420  90.0171  18.3340 0096016 122.2063 353.0627 13.42355892696574
